{"type": "FeatureCollection", "features": [{"type": "Feature", "properties": {"osm_id": 7090858, "osm_type": "relation", "name": "Comunidad Ind\u00edgena Acaraymi", "name_es": "", "admin_level": "11", "place": ""}, "geometry": {"type": "MultiPolygon", "coordinates": [[[[-54.8867819, -25.2559471], [-54.8867539, -25.2559135], [-54.8867422, -25.2558743], [-54.886683, -25.2557832], [-54.8866146, -25.2557235], [-54.8865419, -25.2556909], [-54.8864854, -25.2556946], [-54.8864283, -25.2557299], [-54.8863952, -25.2557791], [-54.8863807, -25.2558646], [-54.8863471, -25.255977], [-54.8863149, -25.2560081], [-54.8862878, -25.2559987], [-54.886252, -25.255953], [-54.8862374, -25.2558987], [-54.8862028, -25.2557853], [-54.8861471, -25.2557755], [-54.8860034, -25.2557644], [-54.8859387, -25.2557725], [-54.8858081, -25.2558293], [-54.8857424, -25.2558239], [-54.8856061, -25.2557768], [-54.8855305, -25.2557757], [-54.8854865, -25.2558067], [-54.8854571, -25.2558559], [-54.8854464, -25.255937], [-54.8854244, -25.2560269], [-54.8853729, -25.25613], [-54.8853099, -25.2561878], [-54.8852765, -25.2561828], [-54.8852361, -25.2561506], [-54.8851485, -25.2560501], [-54.8850824, -25.2559995], [-54.8850231, -25.2559851], [-54.884965, -25.2560068], [-54.8848777, -25.2560669], [-54.8867819, -25.2559471]]], [[[-54.8848033, -25.2560853], [-54.8846549, -25.2560746], [-54.884561, -25.2560868], [-54.8844586, -25.2560898], [-54.8843206, -25.2561375], [-54.8841804, -25.2561761], [-54.8840403, -25.2562057], [-54.8838979, -25.2562217], [-54.8837571, -25.2562242], [-54.8836124, -25.2562311], [-54.8834725, -25.2562472], [-54.8833317, -25.2562497], [-54.8831914, -25.2562522], [-54.8830442, -25.2562636], [-54.8829014, -25.2562661], [-54.8827589, -25.256255], [-54.8826205, -25.2562259], [-54.8824865, -25.2561879], [-54.8823463, -25.2561543], [-54.8822047, -25.2561252], [-54.882058, -25.256105], [-54.8819152, -25.2560759], [-54.8817906, -25.2560335], [-54.8816531, -25.2559864], [-54.8815774, -25.2559853], [-54.8814797, -25.2560065], [-54.881387, -25.2560187], [-54.8813216, -25.2559997], [-54.8811841, -25.2559526], [-54.8810441, -25.2559054], [-54.881035, -25.2558918], [-54.8809995, -25.2557558], [-54.8809968, -25.2556249], [-54.8809799, -25.2554938], [-54.8809327, -25.2553893], [-54.8808521, -25.2552753], [-54.880769, -25.2551658], [-54.8807332, -25.2550886], [-54.880705, -25.2549618], [-54.8806787, -25.2548305], [-54.8806293, -25.2547079], [-54.8805725, -25.2546214], [-54.8804951, -25.2545074], [-54.8804126, -25.2544024], [-54.880325, -25.2543019], [-54.8802443, -25.2541969], [-54.8801846, -25.2540968], [-54.880127, -25.2539831], [-54.8800794, -25.2538651], [-54.8800388, -25.2537381], [-54.8799969, -25.2536156], [-54.8799494, -25.2534931], [-54.8799021, -25.2533615], [-54.8798565, -25.2532345], [-54.8798233, -25.2531076], [-54.8797958, -25.2529809], [-54.8797564, -25.2528539], [-54.8797049, -25.2527494], [-54.8796254, -25.2526444], [-54.8795398, -25.2525394], [-54.8794341, -25.2524431], [-54.879344, -25.252347], [-54.8792531, -25.2522554], [-54.8791977, -25.2521599], [-54.8791515, -25.2520373], [-54.8791077, -25.2519148], [-54.8790511, -25.2518508], [-54.8790312, -25.2518551], [-54.8790107, -25.2518909], [-54.8789881, -25.2519402], [-54.8789477, -25.2519487], [-54.8789051, -25.2519706], [-54.8787889, -25.2520502], [-54.8787221, -25.2521124], [-54.8786414, -25.2522241], [-54.8785906, -25.2522549], [-54.8785348, -25.2522541], [-54.8783929, -25.2522431], [-54.8783113, -25.2522645], [-54.8781757, -25.2523167], [-54.8780925, -25.2523245], [-54.877947, -25.2523405], [-54.877831, -25.2523433], [-54.8776366, -25.2523541], [-54.8848033, -25.2560853]]], [[[-54.8776366, -25.2523541], [-54.8776381, -25.2523767], [-54.8776148, -25.2524666], [-54.8775763, -25.2525067], [-54.8775239, -25.252524], [-54.8774569, -25.2525185], [-54.8773133, -25.2525029], [-54.8772446, -25.252529], [-54.8771916, -25.2525824], [-54.8771134, -25.2526896], [-54.8770829, -25.2527659], [-54.8770772, -25.252847], [-54.8771016, -25.2529376], [-54.8771496, -25.252997], [-54.8772391, -25.2530615], [-54.8773175, -25.2530807], [-54.8774411, -25.2531095], [-54.8775723, -25.253161], [-54.8776798, -25.2532258], [-54.8777874, -25.2533176], [-54.8778439, -25.2533861], [-54.8778766, -25.2534678], [-54.8778877, -25.2535763], [-54.8778892, -25.2537027], [-54.8778808, -25.2538289], [-54.8778432, -25.2539593], [-54.8777914, -25.2540849], [-54.8777527, -25.2542062], [-54.8777545, -25.2543146], [-54.8777758, -25.2544458], [-54.8777792, -25.2545722], [-54.8777827, -25.2546941], [-54.877786, -25.254825], [-54.8777684, -25.2549421], [-54.8777258, -25.2550363], [-54.8776542, -25.2551256], [-54.8775731, -25.2551876], [-54.877451, -25.255249], [-54.8773267, -25.2553014], [-54.8771955, -25.2553537], [-54.8771168, -25.2554202], [-54.8770029, -25.2555089], [-54.8769085, -25.2555526], [-54.8767828, -25.2555734], [-54.8766374, -25.2555893], [-54.8764937, -25.2556098], [-54.8763803, -25.2556398], [-54.8762614, -25.2556968], [-54.8761479, -25.2557674], [-54.8761123, -25.2558095], [-54.8760641, -25.2558299], [-54.8776366, -25.2523541]]], [[[-54.8487806, -25.2766966], [-54.8554938, -25.2698033], [-54.8553948, -25.2697372], [-54.8544216, -25.2683613], [-54.8538538, -25.2674412], [-54.8540016, -25.2673598], [-54.8559741, -25.2670375], [-54.856692, -25.2667956], [-54.8583548, -25.2658102], [-54.8616031, -25.2637121], [-54.862099, -25.2642775], [-54.8623025, -25.2641364], [-54.8621088, -25.2630778], [-54.8639093, -25.2614918], [-54.8642115, -25.2613486], [-54.8642621, -25.2612885], [-54.8647377, -25.2606469], [-54.8650348, -25.2602295], [-54.8759491, -25.2559023], [-54.8760641, -25.2558299], [-54.8487806, -25.2766966]]], [[[-54.8487806, -25.2766966], [-54.8488576, -25.2767248], [-54.8489641, -25.2768121], [-54.8490593, -25.2769038], [-54.8491462, -25.2770043], [-54.8492413, -25.2771005], [-54.8493427, -25.2771922], [-54.8494354, -25.2772838], [-54.8495198, -25.2773889], [-54.8496049, -25.2774894], [-54.849693, -25.2775945], [-54.8497711, -25.277704], [-54.8498592, -25.2778091], [-54.8499367, -25.2779185], [-54.850013, -25.2780279], [-54.8500836, -25.2781418], [-54.8501259, -25.2782417], [-54.8501459, -25.2783729], [-54.8501627, -25.2784724], [-54.8502141, -25.2785499], [-54.8502587, -25.2785912], [-54.8503619, -25.2785791], [-54.8504999, -25.2785315], [-54.8505915, -25.2785058], [-54.8506553, -25.2785112], [-54.8507378, -25.278553], [-54.8508434, -25.2786493], [-54.8509353, -25.27875], [-54.8510279, -25.2788506], [-54.8511268, -25.2789378], [-54.8512338, -25.2790296], [-54.851325, -25.2791348], [-54.8514177, -25.2792309], [-54.8515069, -25.2793405], [-54.8515462, -25.2793998], [-54.8487806, -25.2766966]]], [[[-54.8515462, -25.2793998], [-54.8515911, -25.2793914], [-54.8516508, -25.2794194], [-54.8517738, -25.2794798], [-54.8519184, -25.2795135], [-54.8520611, -25.2795472], [-54.8522032, -25.2795493], [-54.8523497, -25.2795469], [-54.8524968, -25.2795445], [-54.8526483, -25.2795377], [-54.8527927, -25.2795127], [-54.852934, -25.2794877], [-54.853071, -25.2794581], [-54.8531865, -25.2794191], [-54.8533128, -25.2793623], [-54.8534188, -25.2793323], [-54.8535656, -25.2793118], [-54.8537076, -25.2792868], [-54.8538491, -25.2792483], [-54.8539862, -25.2792141], [-54.8541204, -25.279171], [-54.854245, -25.2791051], [-54.8543713, -25.2790528], [-54.8544991, -25.2789824], [-54.8546167, -25.2788938], [-54.8547193, -25.2788096], [-54.8548288, -25.2787209], [-54.8549253, -25.278632], [-54.8550249, -25.2785432], [-54.8551351, -25.2784546], [-54.8552439, -25.2783704], [-54.8553546, -25.2782862], [-54.8554701, -25.2782112], [-54.8555859, -25.2781542], [-54.8557028, -25.2781017], [-54.8558177, -25.2780267], [-54.8559019, -25.2780008], [-54.8559656, -25.2780153], [-54.8560411, -25.2780615], [-54.8561518, -25.2781489], [-54.8562414, -25.278245], [-54.856302, -25.2783632], [-54.8563626, -25.2784814], [-54.8564213, -25.2785996], [-54.8564895, -25.2787089], [-54.8565757, -25.278814], [-54.8566771, -25.2789103], [-54.8567717, -25.2789613], [-54.8568528, -25.2789715], [-54.8569604, -25.2789595], [-54.857106, -25.2789345], [-54.8572485, -25.2789456], [-54.8573875, -25.2789838], [-54.8574356, -25.2790341], [-54.8575069, -25.2791435], [-54.8575842, -25.2792619], [-54.8576629, -25.2793759], [-54.8577617, -25.2794721], [-54.8578579, -25.2795412], [-54.8579841, -25.2796017], [-54.858107, -25.2796667], [-54.8582191, -25.2797496], [-54.8583257, -25.2798278], [-54.858434, -25.2799152], [-54.8585281, -25.2800023], [-54.8586315, -25.280085], [-54.8587295, -25.2801903], [-54.8588302, -25.2802865], [-54.8589216, -25.2803826], [-54.8589955, -25.2804469], [-54.8591032, -25.2805342], [-54.8592154, -25.2806125], [-54.8593283, -25.2806864], [-54.8594352, -25.2807827], [-54.8595136, -25.2808741], [-54.8595507, -25.2809514], [-54.8595746, -25.2810781], [-54.8596115, -25.2812005], [-54.859677, -25.2813233], [-54.8597339, -25.2814415], [-54.85978, -25.2815685], [-54.8598144, -25.2816954], [-54.8598637, -25.2818225], [-54.8599398, -25.281941], [-54.860016, -25.2820188], [-54.8601092, -25.2821149], [-54.8601819, -25.2822198], [-54.8602501, -25.2823291], [-54.8603138, -25.2824429], [-54.8603585, -25.2825518], [-54.8604071, -25.2826789], [-54.8604409, -25.2828058], [-54.8604665, -25.282937], [-54.8604996, -25.2830639], [-54.8605277, -25.2831952], [-54.8605348, -25.2833217], [-54.8605487, -25.2834527], [-54.860592, -25.2835662], [-54.8606482, -25.2836844], [-54.8607164, -25.2837982], [-54.8607743, -25.2838577], [-54.8608882, -25.2839045], [-54.8609444, -25.2838511], [-54.8515462, -25.2793998]]], [[[-54.8609444, -25.2838511], [-54.8609539, -25.2839822], [-54.8609514, -25.2840859], [-54.8609147, -25.2841982], [-54.8608462, -25.2843191], [-54.8607789, -25.28444], [-54.8607019, -25.2845517], [-54.8606809, -25.2846146], [-54.8607, -25.2847277], [-54.8607533, -25.2848413], [-54.8608257, -25.2849552], [-54.8608802, -25.2850327], [-54.8609791, -25.2851289], [-54.8610576, -25.2852519], [-54.8611131, -25.2853746], [-54.8611402, -25.2854968], [-54.8611539, -25.2856324], [-54.8611714, -25.2857681], [-54.861192, -25.2858993], [-54.8612114, -25.286035], [-54.8612375, -25.2861707], [-54.861285, -25.2862933], [-54.8613255, -25.2864248], [-54.8613493, -25.286556], [-54.8613588, -25.286687], [-54.8613632, -25.2868225], [-54.8613647, -25.2869534], [-54.8613648, -25.2870888], [-54.8613668, -25.2872197], [-54.8613652, -25.2873506], [-54.8613703, -25.2874815], [-54.8613729, -25.287617], [-54.8613544, -25.2877521], [-54.8613304, -25.2878827], [-54.8613038, -25.2880177], [-54.8612885, -25.2881483], [-54.8612762, -25.2882836], [-54.861274, -25.2884054], [-54.8613035, -25.2885322], [-54.861349, -25.2886592], [-54.8613884, -25.2887862], [-54.861414, -25.2889174], [-54.8614135, -25.2890528], [-54.8613962, -25.289188], [-54.8613889, -25.2893233], [-54.8613844, -25.289436], [-54.8613505, -25.2895664], [-54.861316, -25.2896923], [-54.8612993, -25.2898275], [-54.8613132, -25.2899586], [-54.8613462, -25.2900899], [-54.8613887, -25.2902169], [-54.8614362, -25.2903395], [-54.8614892, -25.2904666], [-54.861502, -25.290548], [-54.8614573, -25.2906602], [-54.8613906, -25.2907811], [-54.8613315, -25.2908976], [-54.8612944, -25.2909918], [-54.8612907, -25.2911001], [-54.8613126, -25.2912313], [-54.8613257, -25.2913669], [-54.8613358, -25.2914979], [-54.8613465, -25.291629], [-54.8613273, -25.291737], [-54.8612884, -25.2918312], [-54.861212, -25.291943], [-54.861138, -25.2920547], [-54.8610597, -25.2921664], [-54.8609986, -25.2922874], [-54.8609611, -25.2924132], [-54.8609346, -25.2925437], [-54.8609286, -25.2926745], [-54.86093, -25.2928054], [-54.8609326, -25.2929409], [-54.8609452, -25.2930719], [-54.8609714, -25.2932032], [-54.8609983, -25.2933345], [-54.8610326, -25.2934614], [-54.8611114, -25.2935708], [-54.8611634, -25.2936483], [-54.8611679, -25.2937116], [-54.8611457, -25.2937744], [-54.8610914, -25.2938278], [-54.8609625, -25.2938891], [-54.8608308, -25.2939323], [-54.8606937, -25.2939619], [-54.8605549, -25.293987], [-54.8604979, -25.2940178], [-54.8604761, -25.2940536], [-54.8605078, -25.2941262], [-54.8605747, -25.2942355], [-54.8606202, -25.2943671], [-54.8606583, -25.294494], [-54.8607157, -25.2946212], [-54.860726, -25.2946349], [-54.8607628, -25.2947257], [-54.8608223, -25.2948033], [-54.8609244, -25.2948905], [-54.8610346, -25.2949779], [-54.8611212, -25.2950604], [-54.86121, -25.2951655], [-54.861281, -25.2952568], [-54.8613032, -25.2953383], [-54.8612985, -25.2954646], [-54.8609444, -25.2838511]]], [[[-54.8823841, -25.2999722], [-54.88234, -25.3000019], [-54.8822061, -25.3000632], [-54.8820977, -25.3000887], [-54.881958, -25.3001228], [-54.8818256, -25.3001751], [-54.8816974, -25.3002274], [-54.8815608, -25.3002661], [-54.8814262, -25.3003002], [-54.8813043, -25.3003526], [-54.8811855, -25.3004367], [-54.8811247, -25.300508], [-54.8810934, -25.3005933], [-54.8810697, -25.3006742], [-54.8810037, -25.300759], [-54.8809126, -25.300857], [-54.8808344, -25.3009642], [-54.880739, -25.3010576], [-54.8806792, -25.3011064], [-54.8806301, -25.3011102], [-54.8805537, -25.301082], [-54.8804212, -25.301026], [-54.8803284, -25.3010111], [-54.8802832, -25.3010375], [-54.8802433, -25.3010866], [-54.8802008, -25.3012124], [-54.8801475, -25.3012748], [-54.8800423, -25.3013681], [-54.8799407, -25.3014659], [-54.8798349, -25.3015501], [-54.879728, -25.3016343], [-54.8796208, -25.3016915], [-54.8794919, -25.3017528], [-54.8793595, -25.3018005], [-54.8792225, -25.3018302], [-54.8790858, -25.3018733], [-54.8790096, -25.3018993], [-54.8789502, -25.3019255], [-54.8788313, -25.3019464], [-54.8787416, -25.3019677], [-54.8786206, -25.3020381], [-54.8785626, -25.3020509], [-54.8785139, -25.3020321], [-54.8783906, -25.3019852], [-54.8783021, -25.3019704], [-54.8781663, -25.302], [-54.878029, -25.3020432], [-54.8779062, -25.3021136], [-54.8777917, -25.3021616], [-54.877696, -25.3021693], [-54.8776331, -25.3021503], [-54.8775503, -25.3020904], [-54.8774723, -25.3020081], [-54.8773879, -25.3019031], [-54.8772983, -25.301807], [-54.8771931, -25.3017197], [-54.8771096, -25.3016689], [-54.8770096, -25.3016358], [-54.8768626, -25.3016292], [-54.8767458, -25.301605], [-54.8766087, -25.3015624], [-54.8764708, -25.3015333], [-54.8763325, -25.3014952], [-54.8762587, -25.3014535], [-54.8761721, -25.3014026], [-54.8761223, -25.3014109], [-54.8759911, -25.3014632], [-54.8759439, -25.3014625], [-54.8758168, -25.3014201], [-54.8757494, -25.301374], [-54.8756916, -25.3013054], [-54.8756687, -25.3012329], [-54.8756444, -25.3012009], [-54.8756055, -25.3011868], [-54.8755288, -25.3012083], [-54.8754162, -25.3012608], [-54.8752903, -25.3013267], [-54.8752325, -25.3013349], [-54.8751859, -25.3013026], [-54.8750912, -25.3012516], [-54.8750433, -25.3012555], [-54.8750014, -25.3012729], [-54.8749408, -25.3012946], [-54.8748151, -25.3013515], [-54.8747465, -25.3014091], [-54.8746898, -25.3014535], [-54.8746677, -25.3014396], [-54.8746548, -25.3013988], [-54.8746582, -25.3013086], [-54.8746475, -25.3012136], [-54.8746109, -25.301177], [-54.8745713, -25.3011674], [-54.8745157, -25.3011892], [-54.8743966, -25.3012597], [-54.8743154, -25.3012856], [-54.8742466, -25.3012801], [-54.874181, -25.3012385], [-54.8740605, -25.3011691], [-54.8740542, -25.3011374], [-54.8740885, -25.3010927], [-54.8741521, -25.3010079], [-54.8741377, -25.3009761], [-54.8740941, -25.3009529], [-54.8740049, -25.3009426], [-54.8738948, -25.3009591], [-54.8738021, -25.3010029], [-54.8736765, -25.3010552], [-54.8736112, -25.3010272], [-54.8735077, -25.3009851], [-54.8734355, -25.300957], [-54.8733923, -25.3009112], [-54.8733198, -25.3007973], [-54.8732359, -25.3006968], [-54.8731612, -25.3006416], [-54.8730356, -25.3005811], [-54.8729114, -25.3005161], [-54.8727821, -25.3004556], [-54.8726947, -25.3004137], [-54.8726004, -25.3003085], [-54.8725693, -25.3002404], [-54.8725529, -25.3001499], [-54.8725189, -25.3000681], [-54.8724742, -25.2999998], [-54.8724446, -25.2999542], [-54.8723552, -25.2998491], [-54.8722788, -25.2997442], [-54.8722041, -25.2996845], [-54.8720818, -25.2996195], [-54.8719734, -25.2995322], [-54.8718671, -25.2994359], [-54.8717556, -25.299353], [-54.8716359, -25.2992791], [-54.8715301, -25.2991918], [-54.8714261, -25.2991046], [-54.871336, -25.299004], [-54.8712377, -25.2989123], [-54.8711445, -25.2988116], [-54.8710455, -25.2987244], [-54.8709446, -25.2986372], [-54.8708324, -25.2985589], [-54.8707119, -25.298494], [-54.8706044, -25.2984292], [-54.8704743, -25.2983822], [-54.8703412, -25.2983306], [-54.8702016, -25.298288], [-54.8700609, -25.2982453], [-54.8699162, -25.2982162], [-54.8697791, -25.2981781], [-54.8696531, -25.2981402], [-54.8695153, -25.2981111], [-54.8693762, -25.2980775], [-54.8692351, -25.2980529], [-54.8690904, -25.2980237], [-54.8689532, -25.2979946], [-54.868809, -25.29797], [-54.8686707, -25.2979319], [-54.8685259, -25.2979072], [-54.8683854, -25.2978826], [-54.868243, -25.297867], [-54.8681179, -25.2978472], [-54.8679777, -25.297809], [-54.8678452, -25.2977575], [-54.8677204, -25.2976925], [-54.8676013, -25.297614], [-54.8675625, -25.2975638], [-54.8675012, -25.2974862], [-54.8674071, -25.2974036], [-54.8673057, -25.2973435], [-54.8671745, -25.2972874], [-54.8670618, -25.2972406], [-54.8669477, -25.2971623], [-54.8668717, -25.2971431], [-54.8667606, -25.2971415], [-54.8666664, -25.2971356], [-54.8666417, -25.2971307], [-54.8665287, -25.2970975], [-54.8664, -25.2970415], [-54.8662782, -25.2969765], [-54.8662376, -25.2969579], [-54.866219, -25.2969576], [-54.8660737, -25.2969285], [-54.8659374, -25.2968768], [-54.8658158, -25.2968029], [-54.8657043, -25.2967245], [-54.8655821, -25.296646], [-54.8654542, -25.296581], [-54.8653237, -25.2965204], [-54.8651889, -25.2964914], [-54.8650456, -25.2964532], [-54.8649388, -25.296384], [-54.8648247, -25.2963101], [-54.8646909, -25.2962585], [-54.8645672, -25.2962026], [-54.8645135, -25.2961476], [-54.8644511, -25.2960249], [-54.864386, -25.2959517], [-54.8642934, -25.2958917], [-54.8641595, -25.2958446], [-54.8640291, -25.2957795], [-54.8638998, -25.295719], [-54.8637629, -25.2956719], [-54.8636215, -25.2956292], [-54.8634926, -25.2955867], [-54.86335, -25.295544], [-54.8632101, -25.2955194], [-54.8630742, -25.2954859], [-54.86293, -25.2954657], [-54.8627864, -25.2954411], [-54.862653, -25.2954075], [-54.8625551, -25.2953971], [-54.8624423, -25.2954225], [-54.8623267, -25.2954344], [-54.8621797, -25.2954278], [-54.8620395, -25.2954257], [-54.861899, -25.2954372], [-54.8617557, -25.2954397], [-54.8616215, -25.2954467], [-54.8614766, -25.2954627], [-54.8612985, -25.2954646], [-54.8823841, -25.2999722]]], [[[-54.8881867, -25.297108], [-54.8881441, -25.2971605], [-54.8880498, -25.2972675], [-54.8879613, -25.297361], [-54.8878666, -25.2974544], [-54.8877669, -25.2975523], [-54.8876708, -25.2976502], [-54.8875803, -25.2977527], [-54.8874965, -25.2978598], [-54.8874201, -25.2979716], [-54.8873412, -25.2980833], [-54.8872637, -25.2981905], [-54.8871916, -25.2983023], [-54.887117, -25.2984186], [-54.8870486, -25.2985304], [-54.8869893, -25.298656], [-54.8869419, -25.2987771], [-54.886908, -25.2989075], [-54.8868958, -25.2990428], [-54.8869173, -25.2991243], [-54.8869666, -25.2992514], [-54.8870048, -25.2993738], [-54.8869975, -25.2994369], [-54.8869552, -25.299513], [-54.8868979, -25.2995618], [-54.8867757, -25.2996323], [-54.8866431, -25.2996891], [-54.8865511, -25.2996968], [-54.8864806, -25.2996822], [-54.8864169, -25.2996362], [-54.8863142, -25.2995444], [-54.886209, -25.2994572], [-54.8861014, -25.299397], [-54.8859652, -25.2993454], [-54.8858364, -25.2992939], [-54.8857348, -25.2992834], [-54.885587, -25.2992858], [-54.8854424, -25.2992882], [-54.885299, -25.2992907], [-54.8851536, -25.2992976], [-54.8850065, -25.2993], [-54.8848669, -25.299298], [-54.884726, -25.2993005], [-54.884582, -25.299303], [-54.8844324, -25.2993008], [-54.8842851, -25.2993167], [-54.8841431, -25.2993418], [-54.8840055, -25.2993714], [-54.883867, -25.29941], [-54.883734, -25.2994578], [-54.8835972, -25.29951], [-54.883463, -25.2995532], [-54.8833318, -25.2996009], [-54.8832102, -25.2996714], [-54.8831699, -25.299743], [-54.8831155, -25.299837], [-54.883096, -25.2998503], [-54.8830393, -25.299863], [-54.8829755, -25.2998576], [-54.8829135, -25.2998161], [-54.8827988, -25.2997422], [-54.8826945, -25.2997046], [-54.8826499, -25.2997356], [-54.8825476, -25.2998379], [-54.8824448, -25.2999312], [-54.8823841, -25.2999722], [-54.8881867, -25.297108]]], [[[-54.8881867, -25.297108], [-54.9073108, -25.2871127], [-54.9071923, -25.2868792], [-54.9065132, -25.2844464], [-54.9065158, -25.2842974], [-54.9065185, -25.2841395], [-54.9065658, -25.2840228], [-54.9066236, -25.2838747], [-54.9066261, -25.2837258], [-54.9064861, -25.2829318], [-54.8881867, -25.297108]]], [[[-54.9064861, -25.2829318], [-54.9063971, -25.2824272], [-54.9063832, -25.2821923], [-54.9063773, -25.2819936], [-54.9063095, -25.2816767], [-54.9062219, -25.2814633], [-54.9057654, -25.2809468], [-54.9052745, -25.2802674], [-54.9049831, -25.2797081], [-54.9046878, -25.2793473], [-54.904455, -25.2790958], [-54.9044657, -25.2789786], [-54.9046339, -25.2787643], [-54.9051199, -25.2782238], [-54.9064861, -25.2829318]]], [[[-54.8967429, -25.2700012], [-54.8972668, -25.271695], [-54.898013, -25.272503], [-54.8986313, -25.2731725], [-54.8989191, -25.2735016], [-54.8990706, -25.2736753], [-54.8999654, -25.2748209], [-54.9004636, -25.2754057], [-54.9008431, -25.2758268], [-54.8967429, -25.2700012]]], [[[-54.8867823, -25.2560063], [-54.8905098, -25.2633064], [-54.8919648, -25.2650482], [-54.8934221, -25.2668518], [-54.8941876, -25.2665739], [-54.8944403, -25.2664917], [-54.8945697, -25.266471], [-54.8947789, -25.2665326], [-54.8954204, -25.2668938], [-54.8955533, -25.2669899], [-54.8959529, -25.2673585], [-54.8967429, -25.2700012], [-54.8867823, -25.2560063]]]]}}, {"type": "Feature", "properties": {"osm_id": 7091373, "osm_type": "relation", "name": "Comunidad Ind\u00edgena Independiente", "name_es": "", "admin_level": "11", "place": ""}, "geometry": {"type": "MultiPolygon", "coordinates": [[[[-54.9277591, -25.2899218], [-54.9271287, -25.300459], [-54.9271262, -25.3004998], [-54.9265536, -25.3100677], [-54.9265037, -25.310902], [-54.926403, -25.3125845], [-54.9277591, -25.2899218]]], [[[-54.9149146, -25.2781022], [-54.9149442, -25.2782244], [-54.914993, -25.278347], [-54.9150524, -25.2784246], [-54.915152, -25.2785162], [-54.9152498, -25.2786034], [-54.9153539, -25.27865], [-54.915477, -25.2787059], [-54.9156096, -25.2787574], [-54.9157429, -25.2787999], [-54.9158627, -25.2787926], [-54.9160015, -25.278772], [-54.9161366, -25.2787468], [-54.9162857, -25.2787354], [-54.9164132, -25.2787191], [-54.91655, -25.2786985], [-54.9166957, -25.2786689], [-54.9168319, -25.2786528], [-54.9169615, -25.2786546], [-54.9170615, -25.2786877], [-54.917186, -25.2787345], [-54.9173002, -25.2787362], [-54.9173993, -25.2787466], [-54.9175369, -25.2787891], [-54.9175997, -25.2787855], [-54.9177339, -25.2787378], [-54.9178649, -25.278699], [-54.918, -25.2786738], [-54.9181383, -25.2786758], [-54.9182247, -25.2787041], [-54.9183541, -25.2787555], [-54.9184813, -25.2788296], [-54.9185918, -25.2788988], [-54.9187091, -25.2789682], [-54.9187999, -25.2789965], [-54.9189041, -25.2790341], [-54.919017, -25.2791079], [-54.9190981, -25.2791542], [-54.9192066, -25.2791964], [-54.9193061, -25.2792925], [-54.9193451, -25.2793698], [-54.919381, -25.2794877], [-54.9194228, -25.2796192], [-54.9194686, -25.2797326], [-54.9195111, -25.2798596], [-54.919573, -25.2799778], [-54.9196369, -25.280051], [-54.9197516, -25.2801293], [-54.9198519, -25.2802165], [-54.9199273, -25.2802356], [-54.9200348, -25.2802642], [-54.9201286, -25.2803287], [-54.9202301, -25.2804159], [-54.9202985, -25.2804846], [-54.9203404, -25.2805348], [-54.9203427, -25.2805845], [-54.9203133, -25.2806337], [-54.9202956, -25.2806921], [-54.9203118, -25.2807601], [-54.9203205, -25.2808279], [-54.9203368, -25.2808958], [-54.9203556, -25.2809909], [-54.9203447, -25.2811216], [-54.9203654, -25.2812528], [-54.920363, -25.2813566], [-54.9203534, -25.2814828], [-54.9203469, -25.2816091], [-54.9203176, -25.2817305], [-54.920309, -25.2818297], [-54.9203063, -25.2819561], [-54.9202829, -25.2820505], [-54.9202547, -25.2821765], [-54.920264, -25.2822849], [-54.9203085, -25.2824074], [-54.9203648, -25.2825256], [-54.9204317, -25.2826394], [-54.9204936, -25.2827576], [-54.920545, -25.2828757], [-54.9205851, -25.2829981], [-54.9206317, -25.2831026], [-54.9206602, -25.2831797], [-54.9206928, -25.2833065], [-54.9207303, -25.2834334], [-54.9207523, -25.2835646], [-54.9207344, -25.283596], [-54.9206649, -25.2837033], [-54.920679, -25.2837486], [-54.9207409, -25.2838714], [-54.9208246, -25.2839448], [-54.9208879, -25.2840179], [-54.9209622, -25.2841002], [-54.9210274, -25.2841733], [-54.9210697, -25.2842732], [-54.9210882, -25.2843908], [-54.9211034, -25.2845174], [-54.9211384, -25.2846488], [-54.9211711, -25.2847711], [-54.9211882, -25.2848932], [-54.9212077, -25.2850244], [-54.9212376, -25.2850925], [-54.9213131, -25.2851748], [-54.9214118, -25.2852484], [-54.921495, -25.2853173], [-54.9215507, -25.2853993], [-54.9215989, -25.2855174], [-54.9216452, -25.2856444], [-54.9216822, -25.2857668], [-54.9217243, -25.2858802], [-54.9217794, -25.2859938], [-54.921834, -25.2861074], [-54.9219052, -25.2862258], [-54.9219814, -25.2863397], [-54.9220616, -25.2864401], [-54.9221629, -25.2865408], [-54.9222715, -25.2866146], [-54.9223994, -25.2866841], [-54.9225227, -25.286731], [-54.9226687, -25.2867556], [-54.922813, -25.2867757], [-54.9229549, -25.2867867], [-54.9230906, -25.2867976], [-54.9232394, -25.2868087], [-54.9233778, -25.2868062], [-54.9235182, -25.2867991], [-54.9236632, -25.2867696], [-54.9238021, -25.2867399], [-54.923892, -25.2867457], [-54.92399, -25.2867877], [-54.9241086, -25.2868526], [-54.9242289, -25.2869355], [-54.9243436, -25.2870139], [-54.9244671, -25.2870833], [-54.9245869, -25.2871572], [-54.9246968, -25.2872265], [-54.9248148, -25.2872913], [-54.9249376, -25.2873698], [-54.9250523, -25.2874481], [-54.9251672, -25.2875174], [-54.925285, -25.2875958], [-54.9253895, -25.2876747], [-54.9253946, -25.2876786], [-54.9255044, -25.2877569], [-54.9256172, -25.2878352], [-54.9257275, -25.287918], [-54.9258322, -25.2879691], [-54.9259541, -25.288025], [-54.9260805, -25.2880719], [-54.9262002, -25.2881503], [-54.9263081, -25.2882285], [-54.9264088, -25.2883247], [-54.9265028, -25.2884163], [-54.9266001, -25.2884989], [-54.9266904, -25.2885905], [-54.9267838, -25.2886776], [-54.9268885, -25.2887603], [-54.9269839, -25.2888429], [-54.9270809, -25.2889074], [-54.9272003, -25.2889678], [-54.927322, -25.2890327], [-54.9273891, -25.2891013], [-54.9274717, -25.2892063], [-54.927572, -25.2892934], [-54.9276466, -25.2893261], [-54.9276852, -25.2893176], [-54.9278129, -25.2892517], [-54.9278632, -25.2892479], [-54.9278839, -25.2892707], [-54.9278692, -25.2892976], [-54.9277831, -25.2894002], [-54.9277579, -25.2894585], [-54.9277836, -25.289477], [-54.9278374, -25.2894912], [-54.9279376, -25.2895107], [-54.9279508, -25.289538], [-54.9279179, -25.2895736], [-54.9278366, -25.2896086], [-54.9277395, -25.2896659], [-54.9276838, -25.2897283], [-54.9276522, -25.2898001], [-54.9276695, -25.2898364], [-54.9277513, -25.2899188], [-54.9277591, -25.2899218], [-54.9149146, -25.2781022]]], [[[-54.8881867, -25.297108], [-54.9073108, -25.2871127], [-54.9071923, -25.2868792], [-54.9065132, -25.2844464], [-54.9065158, -25.2842974], [-54.9065185, -25.2841395], [-54.9065658, -25.2840228], [-54.9066236, -25.2838747], [-54.9066261, -25.2837258], [-54.9064861, -25.2829318], [-54.8881867, -25.297108]]], [[[-54.8881867, -25.297108], [-54.8881441, -25.2971605], [-54.8880498, -25.2972675], [-54.8879613, -25.297361], [-54.8878666, -25.2974544], [-54.8877669, -25.2975523], [-54.8876708, -25.2976502], [-54.8875803, -25.2977527], [-54.8874965, -25.2978598], [-54.8874201, -25.2979716], [-54.8873412, -25.2980833], [-54.8872637, -25.2981905], [-54.8871916, -25.2983023], [-54.887117, -25.2984186], [-54.8870486, -25.2985304], [-54.8869893, -25.298656], [-54.8869419, -25.2987771], [-54.886908, -25.2989075], [-54.8868958, -25.2990428], [-54.8869173, -25.2991243], [-54.8869666, -25.2992514], [-54.8870048, -25.2993738], [-54.8869975, -25.2994369], [-54.8869552, -25.299513], [-54.8868979, -25.2995618], [-54.8867757, -25.2996323], [-54.8866431, -25.2996891], [-54.8865511, -25.2996968], [-54.8864806, -25.2996822], [-54.8864169, -25.2996362], [-54.8863142, -25.2995444], [-54.886209, -25.2994572], [-54.8861014, -25.299397], [-54.8859652, -25.2993454], [-54.8858364, -25.2992939], [-54.8857348, -25.2992834], [-54.885587, -25.2992858], [-54.8854424, -25.2992882], [-54.885299, -25.2992907], [-54.8851536, -25.2992976], [-54.8850065, -25.2993], [-54.8848669, -25.299298], [-54.884726, -25.2993005], [-54.884582, -25.299303], [-54.8844324, -25.2993008], [-54.8842851, -25.2993167], [-54.8841431, -25.2993418], [-54.8840055, -25.2993714], [-54.883867, -25.29941], [-54.883734, -25.2994578], [-54.8835972, -25.29951], [-54.883463, -25.2995532], [-54.8833318, -25.2996009], [-54.8832102, -25.2996714], [-54.8831699, -25.299743], [-54.8831155, -25.299837], [-54.883096, -25.2998503], [-54.8830393, -25.299863], [-54.8829755, -25.2998576], [-54.8829135, -25.2998161], [-54.8827988, -25.2997422], [-54.8826945, -25.2997046], [-54.8826499, -25.2997356], [-54.8825476, -25.2998379], [-54.8824448, -25.2999312], [-54.8823841, -25.2999722], [-54.8881867, -25.297108]]], [[[-54.8823841, -25.2999722], [-54.8832914, -25.2999207], [-54.890663, -25.3139683], [-54.8906788, -25.3139984], [-54.8943219, -25.3209395], [-54.8951181, -25.3224564], [-54.8992242, -25.3302786], [-54.8823841, -25.2999722]]], [[[-54.8992242, -25.3302786], [-54.899498, -25.3297739], [-54.8999902, -25.3285397], [-54.9001273, -25.328339], [-54.9001837, -25.3282584], [-54.9005476, -25.3271353], [-54.9007845, -25.3257801], [-54.9008678, -25.3255345], [-54.9014581, -25.3253671], [-54.9026637, -25.3245961], [-54.9031968, -25.323568], [-54.9052656, -25.323756], [-54.9062281, -25.3235282], [-54.9176087, -25.3208345], [-54.9178952, -25.3205243], [-54.9182231, -25.3202368], [-54.9199296, -25.3186677], [-54.9214932, -25.3172093], [-54.9231731, -25.315703], [-54.92484, -25.3141919], [-54.9251918, -25.3138357], [-54.9254761, -25.3135586], [-54.9255319, -25.3135042], [-54.9258489, -25.3131951], [-54.9262829, -25.3127168], [-54.926312, -25.3126847], [-54.926403, -25.3125845], [-54.8992242, -25.3302786]]]]}}, {"type": "Feature", "properties": {"osm_id": 7094306, "osm_type": "relation", "name": "Comunidad Ind\u00edgena Mbya Guaran\u00ed", "name_es": "", "admin_level": "11", "place": ""}, "geometry": {"type": "MultiPolygon", "coordinates": [[[[-54.6516211, -25.2981172], [-54.6470175, -25.301805], [-54.6491457, -25.3042356], [-54.6533313, -25.3015933], [-54.6516211, -25.2981172]]], [[[-54.6533313, -25.3015933], [-54.653326, -25.301589], [-54.6533436, -25.3015663], [-54.6534128, -25.301423], [-54.6534142, -25.3013509], [-54.6533583, -25.30135], [-54.6532684, -25.3013801], [-54.6531571, -25.3013287], [-54.6531824, -25.3011757], [-54.6532192, -25.3010003], [-54.6531993, -25.3008781], [-54.6530774, -25.3008265], [-54.6530119, -25.3007126], [-54.65298, -25.3006309], [-54.6528805, -25.3005797], [-54.6529056, -25.3004357], [-54.6528626, -25.3003447], [-54.6527178, -25.3002928], [-54.6525636, -25.3001459], [-54.6525671, -25.2999654], [-54.6526268, -25.2997994], [-54.6526182, -25.2996684], [-54.6525284, -25.2996579], [-54.6524279, -25.2996563], [-54.652374, -25.2995201], [-54.6524008, -25.2992904], [-54.6522809, -25.299135], [-54.6521144, -25.2990511], [-54.6519831, -25.298873], [-54.6516816, -25.298259], [-54.6516211, -25.2981172], [-54.6533313, -25.3015933]]]]}}, {"type": "Feature", "properties": {"osm_id": 8366028, "osm_type": "relation", "name": "Comunidad Indigena Puerto Diana", "name_es": "", "admin_level": "11", "place": ""}, "geometry": {"type": "MultiPolygon", "coordinates": [[[[-58.1697764, -20.248915], [-58.1658574, -20.248795], [-58.1658514, -20.248795], [-58.1652964, -20.248778], [-58.1652854, -20.248778], [-58.1651464, -20.248774], [-58.1697764, -20.248915]]], [[[-58.1615234, -20.261402], [-58.1621154, -20.261518], [-58.1621164, -20.261518], [-58.1647204, -20.26203], [-58.1647244, -20.262031], [-58.1681474, -20.262704], [-58.1682184, -20.260616], [-58.1697764, -20.248915], [-58.1615234, -20.261402]]], [[[-58.1651464, -20.248774], [-58.1640604, -20.252191], [-58.1630574, -20.256754], [-58.1621164, -20.260309], [-58.1615234, -20.261402], [-58.1651464, -20.248774]]]]}}, {"type": "Feature", "properties": {"osm_id": 8368036, "osm_type": "relation", "name": "Comunidad Indigena Puerto Maria Elena (Pitiantuta)", "name_es": "", "admin_level": "10", "place": ""}, "geometry": {"type": "MultiPolygon", "coordinates": [[[[-57.966229, -20.750822], [-57.958097, -20.741409], [-57.953059, -20.735576], [-57.95304, -20.735555], [-57.950422, -20.732523], [-57.9347791, -20.7456528], [-57.966229, -20.750822]]], [[[-57.9347791, -20.7456528], [-57.9354467, -20.7464933], [-57.9437054, -20.7568896], [-57.9470517, -20.7623967], [-57.9347791, -20.7456528]]]]}}, {"type": "Feature", "properties": {"osm_id": 8368037, "osm_type": "relation", "name": "Comunidad Indigena Virgen Santisima", "name_es": "", "admin_level": "", "place": "suburb"}, "geometry": {"type": "Polygon", "coordinates": [[[-57.876888, -21.057545], [-57.880406, -21.057099], [-57.880173, -21.055334], [-57.880164, -21.055267], [-57.880056, -21.054451], [-57.878926, -21.052944], [-57.878915, -21.052928], [-57.878091, -21.051829], [-57.876888, -21.057545]]]}}, {"type": "Feature", "properties": {"osm_id": 8368364, "osm_type": "relation", "name": "Comunidad Indigena Tunucojai", "name_es": "", "admin_level": "10", "place": ""}, "geometry": {"type": "Polygon", "coordinates": [[[-59.78448, -22.05532], [-59.784783, -22.05796], [-59.78479, -22.058023], [-59.78592, -22.067859], [-59.781145, -22.06808], [-59.781395, -22.059355], [-59.781395, -22.059347], [-59.78151, -22.055363], [-59.78448, -22.05532]]]}}, {"type": "Feature", "properties": {"osm_id": 8368365, "osm_type": "relation", "name": "Comunidad Indigena 10 de Junio", "name_es": "", "admin_level": "10", "place": ""}, "geometry": {"type": "Polygon", "coordinates": [[[-59.896355, -22.054279], [-59.896303, -22.05811], [-59.896299, -22.058435], [-59.896294, -22.058812], [-59.896294, -22.058814], [-59.896273, -22.060293], [-59.896273, -22.060294], [-59.896247, -22.062247], [-59.896355, -22.054279]]]}}, {"type": "Feature", "properties": {"osm_id": 8368366, "osm_type": "relation", "name": "Comunidad Indigena La Esquina", "name_es": "", "admin_level": "10", "place": ""}, "geometry": {"type": "MultiPolygon", "coordinates": [[[[-59.896355, -22.054279], [-59.896303, -22.05811], [-59.896299, -22.058435], [-59.896294, -22.058812], [-59.896294, -22.058814], [-59.896273, -22.060293], [-59.896273, -22.060294], [-59.896247, -22.062247], [-59.896355, -22.054279]]], [[[-59.9080767, -22.0618839], [-59.903835, -22.061999], [-59.903788, -22.062], [-59.896247, -22.062247], [-59.9080767, -22.0618839]]]]}}, {"type": "Feature", "properties": {"osm_id": 8368370, "osm_type": "relation", "name": "Comunidad Indigena San Loewen", "name_es": "", "admin_level": "10", "place": ""}, "geometry": {"type": "MultiPolygon", "coordinates": [[[[-59.910307, -22.303409], [-59.905112, -22.302838], [-59.900618, -22.303343], [-59.899581, -22.303341], [-59.910307, -22.303409]]], [[[-59.899581, -22.303341], [-59.900461, -22.3051], [-59.900891, -22.307374], [-59.904843, -22.307834], [-59.906389, -22.307923], [-59.909965, -22.307047], [-59.899581, -22.303341]]]]}}, {"type": "Feature", "properties": {"osm_id": 8368376, "osm_type": "relation", "name": "Comunidad Indigena Cacique Mayeto", "name_es": "", "admin_level": "10", "place": ""}, "geometry": {"type": "MultiPolygon", "coordinates": [[[[-60.03489, -22.365834], [-60.0345235, -22.3658323], [-60.0323617, -22.3658221], [-60.031055, -22.365816], [-60.030549, -22.365812], [-60.03489, -22.365834]]], [[[-60.03489, -22.365834], [-60.034919, -22.367178], [-60.034947, -22.368475], [-60.034948, -22.368516], [-60.034957, -22.368928], [-60.03489, -22.365834]]], [[[-60.02939, -22.370026], [-60.031891, -22.370266], [-60.034978, -22.370181], [-60.034957, -22.368928], [-60.02939, -22.370026]]]]}}, {"type": "Feature", "properties": {"osm_id": 8368378, "osm_type": "relation", "name": "Comunidad Indigena Yvopey Renda (Barrio Guarani)", "name_es": "", "admin_level": "10", "place": ""}, "geometry": {"type": "MultiPolygon", "coordinates": [[[[-60.044063, -22.360418], [-60.04444, -22.36005], [-60.044435, -22.359723], [-60.044434, -22.359718], [-60.044415, -22.358525], [-60.04426, -22.3583488], [-60.04424, -22.358326], [-60.042906, -22.3583662], [-60.042712, -22.358372], [-60.0426694, -22.3583721], [-60.042214, -22.358373], [-60.041484, -22.358368], [-60.0414512, -22.3583678], [-60.040732, -22.358364], [-60.040002, -22.358365], [-60.03872, -22.358357], [-60.0367705, -22.3583351], [-60.044063, -22.360418]]], [[[-60.0367705, -22.3583351], [-60.036952, -22.36038], [-60.037093, -22.360374], [-60.039403, -22.360397], [-60.039455, -22.363414], [-60.039468, -22.36342], [-60.040743, -22.363405], [-60.040747, -22.363405], [-60.041019, -22.363401], [-60.04265, -22.363378], [-60.043935, -22.363363], [-60.044762, -22.362205], [-60.0367705, -22.3583351]]]]}}, {"type": "Feature", "properties": {"osm_id": 8368379, "osm_type": "relation", "name": "Comunidad Indigena U'jelavos", "name_es": "", "admin_level": "10", "place": ""}, "geometry": {"type": "MultiPolygon", "coordinates": [[[[-60.04637, -22.366063], [-60.045698, -22.364451], [-60.045696, -22.364446], [-60.044762, -22.362205], [-60.04637, -22.366063]]], [[[-60.0542936, -22.3603339], [-60.052478, -22.360359], [-60.0524, -22.360365], [-60.050144, -22.360412], [-60.047498, -22.360471], [-60.044063, -22.360418], [-60.0542936, -22.3603339]]], [[[-60.0542936, -22.3603339], [-60.0542722, -22.3609871], [-60.054175, -22.364301], [-60.054174, -22.36432], [-60.054168, -22.364537], [-60.0540935, -22.3664454], [-60.0542936, -22.3603339]]], [[[-60.04637, -22.366063], [-60.046703, -22.366059], [-60.048632, -22.366351], [-60.0510753, -22.3663546], [-60.0517574, -22.3663685], [-60.0540935, -22.3664454], [-60.04637, -22.366063]]]]}}, {"type": "Feature", "properties": {"osm_id": 8368384, "osm_type": "relation", "name": "Comunidad Indigena Obrero", "name_es": "", "admin_level": "10", "place": ""}, "geometry": {"type": "Polygon", "coordinates": [[[-60.035767, -22.433704], [-60.035763, -22.433673], [-60.035467, -22.431386], [-60.035308, -22.43022], [-60.035284, -22.428823], [-60.041781, -22.427644], [-60.035767, -22.433704]]]}}, {"type": "Feature", "properties": {"osm_id": 8368393, "osm_type": "relation", "name": "Comunidad Indigena Santo Domingo", "name_es": "", "admin_level": "10", "place": ""}, "geometry": {"type": "Polygon", "coordinates": [[[-59.944227, -21.906117], [-59.9453, -21.90607], [-59.945306, -21.90607], [-59.946993, -21.905998], [-59.946998, -21.905997], [-59.951103, -21.90582], [-59.956888, -21.918444], [-59.958512, -21.925098], [-59.947394, -21.926394], [-59.944227, -21.906117]]]}}, {"type": "Feature", "properties": {"osm_id": 8368394, "osm_type": "relation", "name": "Comunidad Indigena San Martin", "name_es": "", "admin_level": "10", "place": ""}, "geometry": {"type": "Polygon", "coordinates": [[[-59.941338, -21.888952], [-59.943523, -21.888822], [-59.943559, -21.88882], [-59.945591, -21.888698], [-59.946254, -21.888741], [-59.94629, -21.888743], [-59.948665, -21.888896], [-59.94959, -21.889975], [-59.949685, -21.894608], [-59.942529, -21.894908], [-59.941338, -21.888952]]]}}, {"type": "Feature", "properties": {"osm_id": 8368395, "osm_type": "relation", "name": "Comunidad Indigena Jesudi", "name_es": "", "admin_level": "10", "place": ""}, "geometry": {"type": "MultiPolygon", "coordinates": [[[[-59.938929, -21.86806], [-59.939451, -21.867991], [-59.939457, -21.86799], [-59.94004, -21.867912], [-59.940061, -21.867909], [-59.94108, -21.867773], [-59.941183, -21.868708], [-59.94173, -21.870886], [-59.939152, -21.871265], [-59.938929, -21.86806]]], [[[-59.938929, -21.86806], [-59.939079, -21.868879], [-59.939221, -21.869653], [-59.939152, -21.871265], [-59.938929, -21.86806]]]]}}, {"type": "Feature", "properties": {"osm_id": 8368396, "osm_type": "relation", "name": "Comunidad Indigena 15 de Setiembre", "name_es": "", "admin_level": "10", "place": ""}, "geometry": {"type": "Polygon", "coordinates": [[[-59.929478, -21.808303], [-59.93005, -21.808013], [-59.93005, -21.808012], [-59.930688, -21.807689], [-59.931366, -21.80772], [-59.931868, -21.808278], [-59.93163, -21.809198], [-59.93067, -21.809207], [-59.930663, -21.809207], [-59.930092, -21.809212], [-59.930091, -21.809212], [-59.92957, -21.809218], [-59.929478, -21.808303]]]}}, {"type": "Feature", "properties": {"osm_id": 8368397, "osm_type": "relation", "name": "Comunidad Indigena 2 de Enero", "name_es": "", "admin_level": "10", "place": ""}, "geometry": {"type": "Polygon", "coordinates": [[[-59.927611, -21.789911], [-59.92821, -21.789792], [-59.929659, -21.789504], [-59.929986, -21.789594], [-59.930031, -21.789607], [-59.930393, -21.789706], [-59.930551, -21.790145], [-59.930481, -21.790677], [-59.927702, -21.790805], [-59.927611, -21.789911]]]}}, {"type": "Feature", "properties": {"osm_id": 8368398, "osm_type": "relation", "name": "Comunidad Indigena 10 de Febrero", "name_es": "", "admin_level": "10", "place": ""}, "geometry": {"type": "Polygon", "coordinates": [[[-59.925743, -21.773731], [-59.925762, -21.773728], [-59.925924, -21.773725], [-59.927315, -21.773698], [-59.927861, -21.77355], [-59.92738, -21.77273], [-59.926915, -21.771692], [-59.926116, -21.771904], [-59.925754, -21.771966], [-59.925748, -21.771967], [-59.9254449, -21.7720205], [-59.925743, -21.773731]]]}}, {"type": "Feature", "properties": {"osm_id": 8372929, "osm_type": "relation", "name": "Comunidad Ind\u00edgena Santa Teresita", "name_es": "", "admin_level": "10", "place": "suburb"}, "geometry": {"type": "MultiPolygon", "coordinates": [[[[-60.589687, -22.034002], [-60.5896258, -22.0342125], [-60.589619, -22.034236], [-60.589701, -22.035826], [-60.589739, -22.03663], [-60.589758, -22.037265], [-60.589766, -22.037825], [-60.589781, -22.03841], [-60.58978, -22.03859], [-60.589687, -22.034002]]], [[[-60.58978, -22.03859], [-60.58967, -22.039784], [-60.589794, -22.047648], [-60.589796, -22.047747], [-60.589973, -22.059007], [-60.585929, -22.065506], [-60.581029, -22.065435], [-60.581743, -22.048341], [-60.573951, -22.047089], [-60.573377, -22.042363], [-60.573371, -22.042312], [-60.572988, -22.039163], [-60.572825, -22.038051], [-60.572824, -22.038044], [-60.572528, -22.03603], [-60.578749, -22.035539], [-60.578522, -22.03157], [-60.583474, -22.031225], [-60.583808, -22.034682], [-60.586894, -22.034499], [-60.587189, -22.034497], [-60.587199, -22.034495], [-60.589687, -22.034002], [-60.58978, -22.03859]]]]}}, {"type": "Feature", "properties": {"osm_id": 8372937, "osm_type": "relation", "name": "Comunidad Indigena Casuarina La Serena", "name_es": "", "admin_level": "10", "place": ""}, "geometry": {"type": "MultiPolygon", "coordinates": [[[[-59.972668, -22.90168], [-59.97407, -22.901854], [-59.977009, -22.901857], [-59.977097, -22.901856], [-59.982623, -22.901857], [-59.982749, -22.905638], [-59.972668, -22.90168]]], [[[-59.981958, -22.946978], [-59.983234, -22.920236], [-59.982949, -22.911672], [-59.982946, -22.911585], [-59.982861, -22.909023], [-59.982861, -22.909022], [-59.982749, -22.905638], [-59.981958, -22.946978]]], [[[-59.981958, -22.946978], [-59.978985, -22.947013], [-59.975966, -22.947011], [-59.97265, -22.947014], [-59.972012, -22.946972], [-59.970437, -22.946981], [-59.981958, -22.946978]]], [[[-59.972668, -22.90168], [-59.972259, -22.909981], [-59.972049, -22.91425], [-59.971758, -22.92017], [-59.970437, -22.946981], [-59.972668, -22.90168]]]]}}, {"type": "Feature", "properties": {"osm_id": 8372938, "osm_type": "relation", "name": "Comunidad Indigena Casuarina La Promesa", "name_es": "", "admin_level": "10", "place": ""}, "geometry": {"type": "MultiPolygon", "coordinates": [[[[-60.030397, -22.92405], [-60.031881, -22.946926], [-60.01928, -22.946956], [-60.019273, -22.946956], [-60.01381, -22.946968], [-60.003945, -22.946971], [-59.999395, -22.947012], [-59.997227, -22.946971], [-59.996504, -22.946972], [-59.986086, -22.946929], [-59.981958, -22.946978], [-60.030397, -22.92405]]], [[[-60.013697, -22.911424], [-60.01424, -22.914743], [-60.014248, -22.91479], [-60.015862, -22.924657], [-60.016761, -22.924585], [-60.019345, -22.924585], [-60.023089, -22.924406], [-60.030397, -22.92405], [-60.013697, -22.911424]]], [[[-59.982749, -22.905638], [-60.000471, -22.905464], [-60.000829, -22.912249], [-60.007597, -22.911815], [-60.011105, -22.911591], [-60.011147, -22.911588], [-60.013697, -22.911424], [-59.982749, -22.905638]]], [[[-59.981958, -22.946978], [-59.983234, -22.920236], [-59.982949, -22.911672], [-59.982946, -22.911585], [-59.982861, -22.909023], [-59.982861, -22.909022], [-59.982749, -22.905638], [-59.981958, -22.946978]]]]}}, {"type": "Feature", "properties": {"osm_id": 8372939, "osm_type": "relation", "name": "Comunidad Indigena Casuarina Campo Grande", "name_es": "", "admin_level": "10", "place": ""}, "geometry": {"type": "MultiPolygon", "coordinates": [[[[-59.9800891, -22.8683962], [-59.980174, -22.868523], [-59.985425, -22.875143], [-59.985781, -22.875593], [-59.986376, -22.876342], [-59.986416, -22.876393], [-59.988373, -22.87886], [-59.990958, -22.88207], [-60.000406, -22.881982], [-60.000851, -22.892587], [-60.000851, -22.895529], [-60.000906, -22.896644], [-60.00266, -22.896645], [-60.00328, -22.896645], [-60.013213, -22.89665], [-59.9800891, -22.8683962]]], [[[-59.9743077, -22.8683983], [-59.974302, -22.868514], [-59.972726, -22.900508], [-59.972668, -22.90168], [-59.9743077, -22.8683983]]], [[[-59.972668, -22.90168], [-59.97407, -22.901854], [-59.977009, -22.901857], [-59.977097, -22.901856], [-59.982623, -22.901857], [-59.982749, -22.905638], [-59.972668, -22.90168]]], [[[-59.982749, -22.905638], [-60.000471, -22.905464], [-60.000829, -22.912249], [-60.007597, -22.911815], [-60.011105, -22.911591], [-60.011147, -22.911588], [-60.013697, -22.911424], [-59.982749, -22.905638]]]]}}, {"type": "Feature", "properties": {"osm_id": 8372940, "osm_type": "relation", "name": "Comunidad Indigena Casuarina Campo Virgen", "name_es": "", "admin_level": "10", "place": ""}, "geometry": {"type": "MultiPolygon", "coordinates": [[[[-60.013213, -22.89665], [-60.019729, -22.895725], [-60.023789, -22.895553], [-60.024007, -22.895544], [-60.027802, -22.895383], [-60.02805, -22.895372], [-60.037449, -22.894973], [-60.039716, -22.894877], [-60.037916, -22.90698], [-60.037904, -22.907063], [-60.037618, -22.908985], [-60.037614, -22.909012], [-60.03721, -22.911728], [-60.030084, -22.911865], [-60.030174, -22.915662], [-60.030174, -22.915663], [-60.030219, -22.917542], [-60.030397, -22.92405], [-60.013213, -22.89665]]], [[[-60.013697, -22.911424], [-60.01424, -22.914743], [-60.014248, -22.91479], [-60.015862, -22.924657], [-60.016761, -22.924585], [-60.019345, -22.924585], [-60.023089, -22.924406], [-60.030397, -22.92405], [-60.013697, -22.911424]]]]}}, {"type": "Feature", "properties": {"osm_id": 8372942, "osm_type": "relation", "name": "Comunidad Indigena Laguna Verde", "name_es": "", "admin_level": "10", "place": ""}, "geometry": {"type": "MultiPolygon", "coordinates": [[[[-60.289698, -22.947034], [-60.269111, -22.947101], [-60.269082, -22.947101], [-60.262698, -22.947122], [-60.258211, -22.947145], [-60.257032, -22.947151], [-60.219328, -22.947345], [-60.218903, -22.947347], [-60.215786, -22.947363], [-60.209902, -22.947482], [-60.1998768, -22.9472887], [-60.289698, -22.947034]]], [[[-60.177728, -22.860051], [-60.178618, -22.860444], [-60.207496, -22.873203], [-60.234347, -22.881153], [-60.236873, -22.882799], [-60.263749, -22.900307], [-60.290259, -22.910389], [-60.290254, -22.914462], [-60.290254, -22.914699], [-60.290225, -22.938464], [-60.177728, -22.860051]]]]}}, {"type": "Feature", "properties": {"osm_id": 8372943, "osm_type": "relation", "name": "Comunidad Indigena Santa Marta", "name_es": "", "admin_level": "10", "place": ""}, "geometry": {"type": "Polygon", "coordinates": [[[-60.44249, -23.393163], [-60.452992, -23.376614], [-60.463699, -23.379286], [-60.457601, -23.397056], [-60.44249, -23.393163]]]}}, {"type": "Feature", "properties": {"osm_id": 8372952, "osm_type": "relation", "name": "Comunidad Indigena Paraiso", "name_es": "", "admin_level": "10", "place": ""}, "geometry": {"type": "Polygon", "coordinates": [[[-60.600153, -22.491933], [-60.601031, -22.543279], [-60.56752, -22.545613], [-60.567179, -22.494287], [-60.600153, -22.491933]]]}}, {"type": "Feature", "properties": {"osm_id": 8372973, "osm_type": "relation", "name": "Comunidad Indigena \u00d1u Guazu", "name_es": "", "admin_level": "10", "place": ""}, "geometry": {"type": "Polygon", "coordinates": [[[-61.681832, -20.7894], [-61.686894, -20.793345], [-61.689084, -20.795053], [-61.696819, -20.80108], [-61.700327, -20.803815], [-61.703142, -20.805326], [-61.71916, -20.813925], [-61.709464, -20.83022], [-61.709455, -20.830235], [-61.706096, -20.835881], [-61.70607, -20.835924], [-61.700363, -20.845513], [-61.680158, -20.839717], [-61.652834, -20.826454], [-61.681832, -20.7894]]]}}, {"type": "Feature", "properties": {"osm_id": 11310466, "osm_type": "relation", "name": "Comunidad Ind\u00edgena Maskoy de Puerto la Victoria (Ex \u2013 Puerto Carlos Casado Sociedad Anonima()", "name_es": "", "admin_level": "", "place": "village"}, "geometry": {"type": "MultiPolygon", "coordinates": [[[[-57.9659486, -22.1615284], [-57.9658198, -22.1616179], [-57.9660022, -22.1621445], [-57.9661793, -22.1626016], [-57.9663295, -22.1632077], [-57.9665548, -22.1639529], [-57.9667076, -22.1646111], [-57.9672362, -22.1645242], [-57.9670968, -22.1637392], [-57.967601, -22.1635902], [-57.9676439, -22.1626661], [-57.9681589, -22.1625668], [-57.9685988, -22.1643751], [-57.9693284, -22.1641963], [-57.9689099, -22.1626065], [-57.9688348, -22.1620203], [-57.9688885, -22.1616228], [-57.9700794, -22.1612055], [-57.9701652, -22.1623482], [-57.9703476, -22.1641963], [-57.9709806, -22.1639876], [-57.9708948, -22.1616328], [-57.9708197, -22.1613347], [-57.9718496, -22.1608081], [-57.9731156, -22.16051], [-57.9743334, -22.1602303], [-57.9771229, -22.1590478], [-57.9813929, -22.1570804], [-57.983329, -22.1560187], [-57.9829379, -22.155421], [-57.9659486, -22.1615284]]], [[[-57.9829379, -22.155421], [-57.9800781, -22.1564758], [-57.9785546, -22.1569925], [-57.976484, -22.1580358], [-57.9750737, -22.1585709], [-57.9735233, -22.1591686], [-57.973062, -22.1592878], [-57.9716243, -22.1594965], [-57.9706587, -22.1596455], [-57.9696717, -22.1598939], [-57.9684164, -22.1603609], [-57.9659486, -22.1615284], [-57.9829379, -22.155421]]]]}}], "metadata": {"source": "OpenStreetMap via Overpass API", "overpass_query": "", "timestamp": "2026-09-08", "bbox_paraguay": "(-62.5, -27.5, -54.0, -19.0)", "count": 30, "tag_filter": "name ~ \"^Comunidad\"", "note": "All admin_level=10/11 relations whose name starts with \"Comunidad\" (e.g. \"Comunidad Ind\u00edgena Acaraymi\", \"Comunidad Ind\u00edgena Mbya Guaran\u00ed\")"}}